{
  "norad_id": 68526,
  "name": "STARLINK-37178",
  "history": [
    {
      "epoch": "2026-04-07T05:48:56.935296Z",
      "apogee_km": 293.7813566824516,
      "perigee_km": 293.14488603087375,
      "latitude_deg": -4.5645882496401565e-05,
      "longitude_deg": 83.4704018066746,
      "height_km": 294.1355925324048,
      "semi_major_axis_km": 6671.600121356662,
      "eccentricity": 4.77e-05,
      "inclination_deg": 53.1609,
      "raan_deg": 6.2297,
      "arg_perigee_deg": 322.3858,
      "mean_anomaly_deg": 37.7136,
      "mean_motion_rev_day": 15.9315397
    },
    {
      "epoch": "2026-04-09T20:00:01.999008Z",
      "apogee_km": 321.90021939437065,
      "perigee_km": 321.35753835818105,
      "latitude_deg": 44.6477794855424,
      "longitude_deg": -97.59837237067254,
      "height_km": 325.9831698041654,
      "semi_major_axis_km": 6699.765878876276,
      "eccentricity": 4.05e-05,
      "inclination_deg": 53.1604,
      "raan_deg": 353.107,
      "arg_perigee_deg": 91.1155,
      "mean_anomaly_deg": 330.0334,
      "mean_motion_rev_day": 15.83118128
    },
    {
      "epoch": "2026-04-10T09:23:07.165824Z",
      "apogee_km": 327.45301505461066,
      "perigee_km": 318.95035653007653,
      "latitude_deg": -5.925793967954272e-06,
      "longitude_deg": 10.900265609422025,
      "height_km": 320.9783605684466,
      "semi_major_axis_km": 6701.338685792343,
      "eccentricity": 0.0006344,
      "inclination_deg": 53.1604,
      "raan_deg": 350.3057,
      "arg_perigee_deg": 42.4462,
      "mean_anomaly_deg": 317.7051,
      "mean_motion_rev_day": 15.82560823
    },
    {
      "epoch": "2026-04-11T20:00:01.000224Z",
      "apogee_km": 328.39242109780207,
      "perigee_km": 327.46832501379504,
      "latitude_deg": -48.03356402762456,
      "longitude_deg": 147.09561043783344,
      "height_km": 344.83183340717704,
      "semi_major_axis_km": 6706.067373055798,
      "eccentricity": 6.89e-05,
      "inclination_deg": 53.1595,
      "raan_deg": 343.0783,
      "arg_perigee_deg": 119.9169,
      "mean_anomaly_deg": 172.2043,
      "mean_motion_rev_day": 15.80887238
    },
    {
      "epoch": "2026-04-13T06:00:02.000160Z",
      "apogee_km": 328.3966256718204,
      "perigee_km": 327.47051732589625,
      "latitude_deg": 52.00928126296559,
      "longitude_deg": 117.0524021638816,
      "height_km": 333.72891779109364,
      "semi_major_axis_km": 6706.070571498858,
      "eccentricity": 6.905e-05,
      "inclination_deg": 53.1591,
      "raan_deg": 335.9766,
      "arg_perigee_deg": 72.1189,
      "mean_anomaly_deg": 7.2046,
      "mean_motion_rev_day": 15.80886107
    },
    {
      "epoch": "2026-04-14T20:00:01.999008Z",
      "apogee_km": 328.42820225994365,
      "perigee_km": 327.1741918170974,
      "latitude_deg": 52.959594742962366,
      "longitude_deg": -75.79267279131723,
      "height_km": 333.6875628824277,
      "semi_major_axis_km": 6705.93819703852,
      "eccentricity": 9.35e-05,
      "inclination_deg": 53.1585,
      "raan_deg": 328.0452,
      "arg_perigee_deg": 73.9148,
      "mean_anomaly_deg": 21.6062,
      "mean_motion_rev_day": 15.80932917
    },
    {
      "epoch": "2026-04-15T21:23:30.735744Z",
      "apogee_km": 328.221083211095,
      "perigee_km": 327.3131037968351,
      "latitude_deg": -6.15453992459469e-05,
      "longitude_deg": 157.81800028016136,
      "height_km": 328.59690492895845,
      "semi_major_axis_km": 6705.904093503965,
      "eccentricity": 6.77e-05,
      "inclination_deg": 53.1584,
      "raan_deg": 322.743,
      "arg_perigee_deg": 78.7464,
      "mean_anomaly_deg": 281.3634,
      "mean_motion_rev_day": 15.80944977
    },
    {
      "epoch": "2026-04-16T20:09:03.269088Z",
      "apogee_km": 328.31718085812736,
      "perigee_km": 327.473561985802,
      "latitude_deg": 3.7575442727883995e-05,
      "longitude_deg": 170.74453989194328,
      "height_km": 328.6567715380119,
      "semi_major_axis_km": 6706.032371421964,
      "eccentricity": 6.29e-05,
      "inclination_deg": 53.1584,
      "raan_deg": 317.9897,
      "arg_perigee_deg": 68.1364,
      "mean_anomaly_deg": 291.9726,
      "mean_motion_rev_day": 15.80899615
    },
    {
      "epoch": "2026-04-17T21:56:40.057728Z",
      "apogee_km": 328.3286071650882,
      "perigee_km": 327.28717392358703,
      "latitude_deg": -8.8777674272283e-06,
      "longitude_deg": 137.3948170889777,
      "height_km": 328.562410654773,
      "semi_major_axis_km": 6705.944890544338,
      "eccentricity": 7.765e-05,
      "inclination_deg": 53.1577,
      "raan_deg": 312.6026,
      "arg_perigee_deg": 71.6763,
      "mean_anomaly_deg": 288.4344,
      "mean_motion_rev_day": 15.8093055
    },
    {
      "epoch": "2026-04-20T15:10:07.319424Z",
      "apogee_km": 327.8972345586326,
      "perigee_km": 326.8070561333816,
      "latitude_deg": 3.3498226771119656e-06,
      "longitude_deg": -137.27793109386153,
      "height_km": 327.7306271190562,
      "semi_major_axis_km": 6705.489145346007,
      "eccentricity": 8.129e-05,
      "inclination_deg": 53.1573,
      "raan_deg": 298.9721,
      "arg_perigee_deg": 352.8139,
      "mean_anomaly_deg": 7.2872,
      "mean_motion_rev_day": 15.81091727
    },
    {
      "epoch": "2026-04-22T15:44:22.466976Z",
      "apogee_km": 328.37435678864495,
      "perigee_km": 327.2276413908003,
      "latitude_deg": -4.132409646177349e-05,
      "longitude_deg": -157.96971913224644,
      "height_km": 328.75018594660247,
      "semi_major_axis_km": 6705.937999089722,
      "eccentricity": 8.55e-05,
      "inclination_deg": 53.1568,
      "raan_deg": 288.8382,
      "arg_perigee_deg": 93.1204,
      "mean_anomaly_deg": 266.9916,
      "mean_motion_rev_day": 15.80932987
    },
    {
      "epoch": "2026-04-22T15:44:22.467840Z",
      "apogee_km": 328.37401866366326,
      "perigee_km": 327.2279738601019,
      "latitude_deg": -3.672940897849859e-05,
      "longitude_deg": -157.96971931882106,
      "height_km": 328.7501648692944,
      "semi_major_axis_km": 6705.937996261882,
      "eccentricity": 8.545e-05,
      "inclination_deg": 53.1568,
      "raan_deg": 288.8382,
      "arg_perigee_deg": 93.1204,
      "mean_anomaly_deg": 266.9916,
      "mean_motion_rev_day": 15.80932988
    },
    {
      "epoch": "2026-04-24T16:17:58.204032Z",
      "apogee_km": 333.2642304633273,
      "perigee_km": 332.4320683048036,
      "latitude_deg": 7.379555331164538e-05,
      "longitude_deg": -178.49922632422613,
      "height_km": 334.1624988779332,
      "semi_major_axis_km": 6710.985149384065,
      "eccentricity": 6.2e-05,
      "inclination_deg": 53.1569,
      "raan_deg": 278.7018,
      "arg_perigee_deg": 197.9738,
      "mean_anomaly_deg": 162.1263,
      "mean_motion_rev_day": 15.79149857
    },
    {
      "epoch": "2026-04-25T20:00:01.000224Z",
      "apogee_km": 353.19318061623653,
      "perigee_km": 351.820129310624,
      "latitude_deg": 48.78801203086319,
      "longitude_deg": 177.3967193066563,
      "height_km": 357.41421421839345,
      "semi_major_axis_km": 6730.64365496343,
      "eccentricity": 0.000102,
      "inclination_deg": 53.1591,
      "raan_deg": 272.9646,
      "arg_perigee_deg": 44.1162,
      "mean_anomaly_deg": 25.5693,
      "mean_motion_rev_day": 15.72236466
    },
    {
      "epoch": "2026-04-26T22:00:00.999936Z",
      "apogee_km": 369.69007361930835,
      "perigee_km": 368.5318410349546,
      "latitude_deg": 50.27500507385448,
      "longitude_deg": 146.42050830207742,
      "height_km": 374.40170098188884,
      "semi_major_axis_km": 6747.247957327131,
      "eccentricity": 8.583e-05,
      "inclination_deg": 53.1591,
      "raan_deg": 267.6272,
      "arg_perigee_deg": 68.4237,
      "mean_anomaly_deg": 5.0959,
      "mean_motion_rev_day": 15.66436363
    },
    {
      "epoch": "2026-04-27T20:00:03.000384Z",
      "apogee_km": 383.9917315214698,
      "perigee_km": 382.35549435313806,
      "latitude_deg": -14.316428040857136,
      "longitude_deg": -61.72374939696494,
      "height_km": 387.4746365535742,
      "semi_major_axis_km": 6761.310612937304,
      "eccentricity": 0.000121,
      "inclination_deg": 53.1602,
      "raan_deg": 263.1463,
      "arg_perigee_deg": 74.4822,
      "mean_anomaly_deg": 123.299,
      "mean_motion_rev_day": 15.61551926
    },
    {
      "epoch": "2026-04-28T20:00:01.000224Z",
      "apogee_km": 398.7367865411279,
      "perigee_km": 397.59565707857473,
      "latitude_deg": 39.88838111964497,
      "longitude_deg": 140.0009416718155,
      "height_km": 401.1744929425313,
      "semi_major_axis_km": 6776.303221809851,
      "eccentricity": 8.42e-05,
      "inclination_deg": 53.1588,
      "raan_deg": 258.2955,
      "arg_perigee_deg": 67.5911,
      "mean_anomaly_deg": 345.4589,
      "mean_motion_rev_day": 15.5637238
    },
    {
      "epoch": "2026-04-29T20:00:01.999008Z",
      "apogee_km": 413.6867690026338,
      "perigee_km": 412.1574224942706,
      "latitude_deg": -49.02621687641226,
      "longitude_deg": -25.241218843965164,
      "height_km": 430.5396652455902,
      "semi_major_axis_km": 6791.059095748452,
      "eccentricity": 0.0001126,
      "inclination_deg": 53.1599,
      "raan_deg": 253.4807,
      "arg_perigee_deg": 67.4191,
      "mean_anomaly_deg": 182.7781,
      "mean_motion_rev_day": 15.51302518
    },
    {
      "epoch": "2026-04-30T14:00:01.999872Z",
      "apogee_km": 424.18182702612285,
      "perigee_km": 423.0028152655959,
      "latitude_deg": 46.09488852888475,
      "longitude_deg": -49.36054143310968,
      "height_km": 428.13543839170904,
      "semi_major_axis_km": 6801.729321145859,
      "eccentricity": 8.667e-05,
      "inclination_deg": 53.1606,
      "raan_deg": 249.8931,
      "arg_perigee_deg": 66.4907,
      "mean_anomaly_deg": 49.5965,
      "mean_motion_rev_day": 15.47653537
    },
    {
      "epoch": "2026-05-02T10:00:03.000096Z",
      "apogee_km": 440.63975946118444,
      "perigee_km": 438.84120338158573,
      "latitude_deg": -38.96929032361466,
      "longitude_deg": 87.91086912538512,
      "height_km": 453.3355746025495,
      "semi_major_axis_km": 6817.877481421385,
      "eccentricity": 0.0001319,
      "inclination_deg": 53.1601,
      "raan_deg": 241.1984,
      "arg_perigee_deg": 70.0981,
      "mean_anomaly_deg": 161.3701,
      "mean_motion_rev_day": 15.42158362
    }
  ]
}